{"type": "FeatureCollection", "features": [{"type": "Feature", "properties": {"norad_id": 66549, "name": "SHIJIAN-28 (SJ-28)", "group": "last-30-days", "lat": 4.937016593756888, "lon": -3.5039149673635315, "alt_km": 35784.43309513575, "timestamp": "2025-12-24T09:46:29.712983+00:00", "meta": {"OBJECT_NAME": "SHIJIAN-28 (SJ-28)", "OBJECT_ID": "2025-277A", "EPOCH": "2025-12-23T23:02:51.684288", "MEAN_MOTION": 1.00265866, "ECCENTRICITY": 0.0001012, "INCLINATION": 4.9911, "RA_OF_ASC_NODE": 274.7803, "ARG_OF_PERICENTER": 131.4986, "MEAN_ANOMALY": 148.9332, "EPHEMERIS_TYPE": 0, "CLASSIFICATION_TYPE": "U", "NORAD_CAT_ID": 66549, "ELEMENT_SET_NO": 999, "REV_AT_EPOCH": 39, "BSTAR": 0, "MEAN_MOTION_DOT": -3.37e-06, "MEAN_MOTION_DDOT": 0}, "tle": {"line1": "1 66549U 25277A   25357.96032042 -.00000337  00000+0  00000+0 0  9993", "line2": "2 66549   4.9911 274.7803 0001012 131.4986 148.9332  1.00265866   399"}}, "geometry": {"type": "Point", "coordinates": [-3.5039149673635315, 4.937016593756888]}}, {"type": "Feature", "properties": {"norad_id": 66550, "name": "CZ-7A R/B", "group": "last-30-days", "lat": -1.3929232326741252, "lon": -102.29210927567554, "alt_km": 18436.90010789829, "timestamp": "2025-12-24T09:46:29.713036+00:00", "meta": {"OBJECT_NAME": "CZ-7A R/B", "OBJECT_ID": "2025-277B", "EPOCH": "2025-12-23T05:53:12.433056", "MEAN_MOTION": 3.27661077, "ECCENTRICITY": 0.66094342, "INCLINATION": 14.3426, "RA_OF_ASC_NODE": 263.9223, "ARG_OF_PERICENTER": 200.4471, "MEAN_ANOMALY": 110.5172, "EPHEMERIS_TYPE": 0, "CLASSIFICATION_TYPE": "U", "NORAD_CAT_ID": 66550, "ELEMENT_SET_NO": 999, "REV_AT_EPOCH": 65, "BSTAR": 0.0068493476, "MEAN_MOTION_DOT": 0.10979967, "MEAN_MOTION_DDOT": 1.8894821e-05}, "tle": {"line1": "1 66550U 25277B   25357.24528279  .10979967  18895-4  68493-2 0  9991", "line2": "2 66550  14.3426 263.9223 6609434 200.4471 110.5172  3.27661077   658"}}, "geometry": {"type": "Point", "coordinates": [-102.29210927567554, -1.3929232326741252]}}, {"type": "Feature", "properties": {"norad_id": 66554, "name": "GLOBAL-33", "group": "last-30-days", "lat": 21.759688267600847, "lon": 15.946408056212272, "alt_km": 469.4435487900937, "timestamp": "2025-12-24T09:46:29.713063+00:00", "meta": {"OBJECT_NAME": "GLOBAL-33", "OBJECT_ID": "2025-267A", "EPOCH": "2025-12-23T22:40:26.978016", "MEAN_MOTION": 15.31714387, "ECCENTRICITY": 0.0004481, "INCLINATION": 42.0211, "RA_OF_ASC_NODE": 352.304, "ARG_OF_PERICENTER": 170.013, "MEAN_ANOMALY": 190.0798, "EPHEMERIS_TYPE": 0, "CLASSIFICATION_TYPE": "U", "NORAD_CAT_ID": 66554, "ELEMENT_SET_NO": 999, "REV_AT_EPOCH": 512, "BSTAR": 0.00043448475, "MEAN_MOTION_DOT": 0.00013368, "MEAN_MOTION_DDOT": 0}, "tle": {"line1": "1 66554U 25267A   25357.94475669  .00013368  00000+0  43448-3 0  9996", "line2": "2 66554  42.0211 352.3040 0004481 170.0130 190.0798 15.31714387  5126"}}, "geometry": {"type": "Point", "coordinates": [15.946408056212272, 21.759688267600847]}}, {"type": "Feature", "properties": {"norad_id": 66557, "name": "STARLINK-35699", "group": "last-30-days", "lat": 4.176705063500762, "lon": -131.59571865931713, "alt_km": 434.30487150565205, "timestamp": "2025-12-24T09:46:29.713077+00:00", "meta": {"OBJECT_NAME": "STARLINK-35699", "OBJECT_ID": "2025-268A", "EPOCH": "2025-12-24T04:00:01.998720", "MEAN_MOTION": 15.44826161, "ECCENTRICITY": 9.03e-05, "INCLINATION": 43.0005, "RA_OF_ASC_NODE": 54.2933, "ARG_OF_PERICENTER": 278.927, "MEAN_ANOMALY": 355.6593, "EPHEMERIS_TYPE": 0, "CLASSIFICATION_TYPE": "U", "NORAD_CAT_ID": 66557, "ELEMENT_SET_NO": 999, "REV_AT_EPOCH": 612, "BSTAR": -0.045215, "MEAN_MOTION_DOT": -0.01941762, "MEAN_MOTION_DDOT": 0}, "tle": {"line1": "1 66557U 25268A   25358.16668980 -.01941762  00000+0 -45215-1 0  9998", "line2": "2 66557  43.0005  54.2933 0000903 278.9270 355.6593 15.44826161  6129"}}, "geometry": {"type": "Point", "coordinates": [-131.59571865931713, 4.176705063500762]}}, {"type": "Feature", "properties": {"norad_id": 66558, "name": "STARLINK-35695", "group": "last-30-days", "lat": -2.6810481057743853, "lon": -124.2444437934401, "alt_km": 432.4855423304898, "timestamp": "2025-12-24T09:46:29.713089+00:00", "meta": {"OBJECT_NAME": "STARLINK-35695", "OBJECT_ID": "2025-268B", "EPOCH": "2025-12-24T04:00:01.998720", "MEAN_MOTION": 15.45734955, "ECCENTRICITY": 8.75e-05, "INCLINATION": 43.0003, "RA_OF_ASC_NODE": 54.2714, "ARG_OF_PERICENTER": 271.5885, "MEAN_ANOMALY": 12.293, "EPHEMERIS_TYPE": 0, "CLASSIFICATION_TYPE": "U", "NORAD_CAT_ID": 66558, "ELEMENT_SET_NO": 999, "REV_AT_EPOCH": 601, "BSTAR": -0.045767, "MEAN_MOTION_DOT": -0.02018801, "MEAN_MOTION_DDOT": 0}, "tle": {"line1": "1 66558U 25268B   25358.16668980 -.02018801  00000+0 -45767-1 0  9991", "line2": "2 66558  43.0003  54.2714 0000875 271.5885  12.2930 15.45734955  6013"}}, "geometry": {"type": "Point", "coordinates": [-124.2444437934401, -2.6810481057743853]}}, {"type": "Feature", "properties": {"norad_id": 66559, "name": "STARLINK-35419", "group": "last-30-days", "lat": -28.026130688916247, "lon": -92.38461001045884, "alt_km": 419.38760451259714, "timestamp": "2025-12-24T09:46:29.713101+00:00", "meta": {"OBJECT_NAME": "STARLINK-35419", "OBJECT_ID": "2025-268C", "EPOCH": "2025-12-24T04:00:01.998720", "MEAN_MOTION": 15.50863566, "ECCENTRICITY": 0.0001138, "INCLINATION": 42.9999, "RA_OF_ASC_NODE": 54.1867, "ARG_OF_PERICENTER": 263.4612, "MEAN_ANOMALY": 55.6224, "EPHEMERIS_TYPE": 0, "CLASSIFICATION_TYPE": "U", "NORAD_CAT_ID": 66559, "ELEMENT_SET_NO": 999, "REV_AT_EPOCH": 607, "BSTAR": -0.038499, "MEAN_MOTION_DOT": -0.02034071, "MEAN_MOTION_DDOT": 0}, "tle": {"line1": "1 66559U 25268C   25358.16668980 -.02034071  00000+0 -38499-1 0  9993", "line2": "2 66559  42.9999  54.1867 0001138 263.4612  55.6224 15.50863566  6075"}}, "geometry": {"type": "Point", "coordinates": [-92.38461001045884, -28.026130688916247]}}, {"type": "Feature", "properties": {"norad_id": 66560, "name": "STARLINK-35411", "group": "last-30-days", "lat": -30.535496045211683, "lon": -87.95879783519356, "alt_km": 417.9416749991715, "timestamp": "2025-12-24T09:46:29.713139+00:00", "meta": {"OBJECT_NAME": "STARLINK-35411", "OBJECT_ID": "2025-268D", "EPOCH": "2025-12-24T04:00:01.998720", "MEAN_MOTION": 15.51393295, "ECCENTRICITY": 0.0001181, "INCLINATION": 43.0001, "RA_OF_ASC_NODE": 54.1762, "ARG_OF_PERICENTER": 264.1989, "MEAN_ANOMALY": 59.0411, "EPHEMERIS_TYPE": 0, "CLASSIFICATION_TYPE": "U", "NORAD_CAT_ID": 66560, "ELEMENT_SET_NO": 999, "REV_AT_EPOCH": 607, "BSTAR": -0.03777, "MEAN_MOTION_DOT": -0.02034122, "MEAN_MOTION_DDOT": 0}, "tle": {"line1": "1 66560U 25268D   25358.16668980 -.02034122  00000+0 -37770-1 0  9993", "line2": "2 66560  43.0001  54.1762 0001181 264.1989  59.0411 15.51393295  6074"}}, "geometry": {"type": "Point", "coordinates": [-87.95879783519356, -30.535496045211683]}}, {"type": "Feature", "properties": {"norad_id": 66561, "name": "STARLINK-35305", "group": "last-30-days", "lat": -35.781442163079554, "lon": -76.5972783513131, "alt_km": 413.1308120468284, "timestamp": "2025-12-24T09:46:29.713153+00:00", "meta": {"OBJECT_NAME": "STARLINK-35305", "OBJECT_ID": "2025-268E", "EPOCH": "2025-12-24T04:00:01.998720", "MEAN_MOTION": 15.5308638, "ECCENTRICITY": 0.0001396, "INCLINATION": 43.0008, "RA_OF_ASC_NODE": 54.1524, "ARG_OF_PERICENTER": 264.4824, "MEAN_ANOMALY": 68.1791, "EPHEMERIS_TYPE": 0, "CLASSIFICATION_TYPE": "U", "NORAD_CAT_ID": 66561, "ELEMENT_SET_NO": 999, "REV_AT_EPOCH": 606, "BSTAR": -0.036177, "MEAN_MOTION_DOT": -0.02068114, "MEAN_MOTION_DDOT": 0}, "tle": {"line1": "1 66561U 25268E   25358.16668980 -.02068114  00000+0 -36177-1 0  9992", "line2": "2 66561  43.0008  54.1524 0001396 264.4824  68.1791 15.53086380  6064"}}, "geometry": {"type": "Point", "coordinates": [-76.5972783513131, -35.781442163079554]}}, {"type": "Feature", "properties": {"norad_id": 66562, "name": "STARLINK-35579", "group": "last-30-days", "lat": -33.42185159741158, "lon": -82.1585153584798, "alt_km": 415.50471466515955, "timestamp": "2025-12-24T09:46:29.713164+00:00", "meta": {"OBJECT_NAME": "STARLINK-35579", "OBJECT_ID": "2025-268F", "EPOCH": "2025-12-24T04:00:01.998720", "MEAN_MOTION": 15.52233241, "ECCENTRICITY": 0.0001352, "INCLINATION": 42.9998, "RA_OF_ASC_NODE": 54.1632, "ARG_OF_PERICENTER": 263.6832, "MEAN_ANOMALY": 64.5476, "EPHEMERIS_TYPE": 0, "CLASSIFICATION_TYPE": "U", "NORAD_CAT_ID": 66562, "ELEMENT_SET_NO": 999, "REV_AT_EPOCH": 612, "BSTAR": -0.036679, "MEAN_MOTION_DOT": -0.02036311, "MEAN_MOTION_DDOT": 0}, "tle": {"line1": "1 66562U 25268F   25358.16668980 -.02036311  00000+0 -36679-1 0  9994", "line2": "2 66562  42.9998  54.1632 0001352 263.6832  64.5476 15.52233241  6129"}}, "geometry": {"type": "Point", "coordinates": [-82.1585153584798, -33.42185159741158]}}, {"type": "Feature", "properties": {"norad_id": 66563, "name": "STARLINK-35437", "group": "last-30-days", "lat": -37.65199001644807, "lon": -71.3807918573458, "alt_km": 410.69785117241736, "timestamp": "2025-12-24T09:46:29.713175+00:00", "meta": {"OBJECT_NAME": "STARLINK-35437", "OBJECT_ID": "2025-268G", "EPOCH": "2025-12-24T04:00:01.998720", "MEAN_MOTION": 15.53920741, "ECCENTRICITY": 0.0001472, "INCLINATION": 43.0004, "RA_OF_ASC_NODE": 54.1422, "ARG_OF_PERICENTER": 265.1278, "MEAN_ANOMALY": 71.4011, "EPHEMERIS_TYPE": 0, "CLASSIFICATION_TYPE": "U", "NORAD_CAT_ID": 66563, "ELEMENT_SET_NO": 999, "REV_AT_EPOCH": 612, "BSTAR": -0.034939, "MEAN_MOTION_DOT": -0.02060536, "MEAN_MOTION_DDOT": 0}, "tle": {"line1": "1 66563U 25268G   25358.16668980 -.02060536  00000+0 -34939-1 0  9998", "line2": "2 66563  43.0004  54.1422 0001472 265.1278  71.4011 15.53920741  6122"}}, "geometry": {"type": "Point", "coordinates": [-71.3807918573458, -37.65199001644807]}}]}